FENGYUN 1C DEB          
1 33687U 99025DFY 17345.76053674  .00000803  00000-0  97559-4 0  9990
2 33687  99.0414 332.4428 0255795 122.1517 240.4778 14.66407335283862
